ORBCOMM FM05            
1 25117U 97084F   25267.14702994  .00003482  00000+0  10028-2 0  9991
2 25117  45.0130 252.8114 0004051 322.2136  37.8431 14.46238949454934
ORBCOMM FM06            
1 25118U 97084G   25267.27035050  .00003675  00000+0  10530-2 0  9990
2 25118  45.0126 251.8445 0003209 312.7665  61.5577 14.46389821455876
ORBCOMM FM07            
1 25119U 97084H   25267.14266131  .00003390  00000+0  97427-3 0  9998
2 25119  45.0122 253.2200 0004910 324.8994  35.1533 14.46397554455845
ORBCOMM FM03            
1 25158U 98007B   25267.14070503  .00001860  00000+0  69506-3 0  9990
2 25158 107.9638 338.9108 0042610  75.7635 284.8232 14.34714381438230
ORBCOMM FM04            
1 25159U 98007C   25267.17767966  .00001727  00000+0  64697-3 0  9998
2 25159 107.9624 342.2735 0038374  72.9053 287.6285 14.34958404438421
ORBCOMM FM17            
1 25413U 98046A   25266.96708304  .00001595  00000+0  60088-3 0  9994
2 25413  44.9935 151.3556 0003845 353.9794   6.1006 14.35273522417365
ORBCOMM FM18            
1 25414U 98046B   25267.16537579  .00002422  00000+0  82642-3 0  9992
2 25414  44.9931  65.1506 0004508  75.0241 285.1106 14.38799097418505
ORBCOMM FM19            
1 25415U 98046C   25267.15804081  .00002463  00000+0  84263-3 0  9993
2 25415  44.9938  67.3386 0003257  73.8367  96.2117 14.38611902418453
